[{"OBJECT_NAME":"OBJECT Y","OBJECT_ID":"2023-085Y","EPOCH":"2026-03-09T22:38:54.992256","MEAN_MOTION":15.32500153,"ECCENTRICITY":0.00063298,"INCLINATION":97.4849,"RA_OF_ASC_NODE":180.8653,"ARG_OF_PERICENTER":67.4431,"MEAN_ANOMALY":292.748,"EPHEMERIS_TYPE":0,"CLASSIFICATION_TYPE":"U","NORAD_CAT_ID":57026,"ELEMENT_SET_NO":999,"REV_AT_EPOCH":15160,"BSTAR":0.00065512761,"MEAN_MOTION_DOT":0.00020524,"MEAN_MOTION_DDOT":0},{"OBJECT_NAME":"STARLINK-32810","OBJECT_ID":"2025-034J","EPOCH":"2026-03-09T19:32:14.394336","MEAN_MOTION":15.30198249,"ECCENTRICITY":8.403e-5,"INCLINATION":53.158,"RA_OF_ASC_NODE":257.7044,"ARG_OF_PERICENTER":97.7827,"MEAN_ANOMALY":262.3269,"EPHEMERIS_TYPE":0,"CLASSIFICATION_TYPE":"U","NORAD_CAT_ID":63037,"ELEMENT_SET_NO":999,"REV_AT_EPOCH":5910,"BSTAR":0.001064822,"MEAN_MOTION_DOT":0.00031309,"MEAN_MOTION_DDOT":0}]
